NAVSTAR 79 (USA 304)    
1 45854U 20041A   25321.33249900 -.00000099  00000+0  00000+0 0  9993
2 45854  56.5296  37.1752 0059934 202.4090 157.0019  2.00562584 39785
GALAXY 30 (G-30)        
1 46114U 20056C   25322.15896251  .00000054  00000+0  00000+0 0  9997
2 46114   0.0174 326.6019 0002027 263.4172 119.6813  1.00270995 19173
COSMOS 2547 [GLONASS-K] 
1 46805U 20075A   25321.77614329  .00000058  00000+0  00000+0 0  9990
2 46805  64.5953 199.5301 0006518 231.0229 129.0084  2.13099956 39408
NAVSTAR 80 (USA 309)    
1 46826U 20078A   25316.12603230 -.00000034  00000+0  00000+0 0  9993
2 46826  54.0224 219.5836 0063912 203.4991 326.7749  2.00567032 37157
NAVSTAR 81 (USA 319)    
1 48859U 21054A   25319.11062946 -.00000086  00000+0  00000+0 0  9998
2 48859  55.2649 341.0634 0024511 231.9920 120.1628  2.00555149 32452
QZS-1R (MICHIBIKI-1R)   
1 49336U 21096A   25319.22976563 -.00000239  00000+0  00000+0 0  9996
2 49336  37.0211  82.7671 0751446 270.8133 279.6285  1.00266828 14864
GSAT0223 (GALILEO 27)   
1 49809U 21116A   25321.24109722 -.00000083  00000+0  00000+0 0  9991
2 49809  57.2251 347.4022 0004584 240.2023 123.7519  1.70476233 24579
GSAT0224 (GALILEO 28)   
1 49810U 21116B   25321.08643947 -.00000083  00000+0  00000+0 0  9997
2 49810  57.2257 347.4051 0003866 243.7749 137.8498  1.70476321 24596
COSMOS 2557 [GLONASS-K] 
1 52984U 22075A   25321.47232944 -.00000050  00000+0  00000+0 0  9996
2 52984  64.4235 321.9402 0013801 275.0008  84.8657  2.13102052 26204
COSMOS 2559 [GLONASS-K] 
1 54031U 22130A   25321.29144396 -.00000049  00000+0  00000+0 0  9994
2 54031  64.3956 322.0371 0012456 192.7783 167.2149  2.13101506 24174
COSMOS 2564 [GLONASS-M] 
1 54377U 22161A   25322.07428383  .00000060  00000+0  00000+0 0  9991
2 54377  64.7372 199.7182 0008968 208.9842 151.0565  2.13102104 23134
NAVSTAR 82 (USA 343)    
1 55268U 23009A   25321.80563045  .00000098  00000+0  00000+0 0  9999
2 55268  55.1033 156.8251 0003770 359.0155 181.0577  2.00557910 21009
BEIDOU-3 G4             
1 56564U 23066A   25322.19558802 -.00000094  00000+0  00000+0 0  9997
2 56564   0.8705 300.0880 0003823 226.7808 121.0996  1.00272736  9270
