[
    {
        "OBJECT_NAME": "GPS BIII-3  (PRN 23)",
        "OBJECT_ID": "2020-041A",
        "EPOCH": "2025-11-17T07:58:47.913600",
        "MEAN_MOTION": 2.00562584,
        "ECCENTRICITY": 0.00599341,
        "INCLINATION": 56.5296,
        "RA_OF_ASC_NODE": 37.1752,
        "ARG_OF_PERICENTER": 202.409,
        "MEAN_ANOMALY": 157.0019,
        "EPHEMERIS_TYPE": 0,
        "CLASSIFICATION_TYPE": "U",
        "NORAD_CAT_ID": 45854,
        "ELEMENT_SET_NO": 999,
        "REV_AT_EPOCH": 3978,
        "BSTAR": 0,
        "MEAN_MOTION_DOT": -9.9e-7,
        "MEAN_MOTION_DDOT": 0
    },
    {
        "OBJECT_NAME": "GALAXY 30 (WAAS/PRN 135)",
        "OBJECT_ID": "2020-056C",
        "EPOCH": "2025-11-18T03:48:54.360864",
        "MEAN_MOTION": 1.00270995,
        "ECCENTRICITY": 0.0002027,
        "INCLINATION": 0.0174,
        "RA_OF_ASC_NODE": 326.6019,
        "ARG_OF_PERICENTER": 263.4172,
        "MEAN_ANOMALY": 119.6813,
        "EPHEMERIS_TYPE": 0,
        "CLASSIFICATION_TYPE": "U",
        "NORAD_CAT_ID": 46114,
        "ELEMENT_SET_NO": 999,
        "REV_AT_EPOCH": 1917,
        "BSTAR": 0,
        "MEAN_MOTION_DOT": 5.4e-7,
        "MEAN_MOTION_DDOT": 0
    },
    {
        "OBJECT_NAME": "COSMOS 2547 (705K)",
        "OBJECT_ID": "2020-075A",
        "EPOCH": "2025-11-17T18:37:38.780256",
        "MEAN_MOTION": 2.13099956,
        "ECCENTRICITY": 0.0006518,
        "INCLINATION": 64.5953,
        "RA_OF_ASC_NODE": 199.5301,
        "ARG_OF_PERICENTER": 231.0229,
        "MEAN_ANOMALY": 129.0084,
        "EPHEMERIS_TYPE": 0,
        "CLASSIFICATION_TYPE": "U",
        "NORAD_CAT_ID": 46805,
        "ELEMENT_SET_NO": 999,
        "REV_AT_EPOCH": 3940,
        "BSTAR": 0,
        "MEAN_MOTION_DOT": 5.8e-7,
        "MEAN_MOTION_DDOT": 0
    },
    {
        "OBJECT_NAME": "GPS BIII-4  (PRN 14)",
        "OBJECT_ID": "2020-078A",
        "EPOCH": "2025-11-12T03:01:29.190720",
        "MEAN_MOTION": 2.00567032,
        "ECCENTRICITY": 0.0063912,
        "INCLINATION": 54.0224,
        "RA_OF_ASC_NODE": 219.5836,
        "ARG_OF_PERICENTER": 203.4991,
        "MEAN_ANOMALY": 326.7749,
        "EPHEMERIS_TYPE": 0,
        "CLASSIFICATION_TYPE": "U",
        "NORAD_CAT_ID": 46826,
        "ELEMENT_SET_NO": 999,
        "REV_AT_EPOCH": 3715,
        "BSTAR": 0,
        "MEAN_MOTION_DOT": -3.4e-7,
        "MEAN_MOTION_DDOT": 0
    },
    {
        "OBJECT_NAME": "GPS BIII-5  (PRN 11)",
        "OBJECT_ID": "2021-054A",
        "EPOCH": "2025-11-15T02:39:18.385344",
        "MEAN_MOTION": 2.00555149,
        "ECCENTRICITY": 0.0024511,
        "INCLINATION": 55.2649,
        "RA_OF_ASC_NODE": 341.0634,
        "ARG_OF_PERICENTER": 231.992,
        "MEAN_ANOMALY": 120.1628,
        "EPHEMERIS_TYPE": 0,
        "CLASSIFICATION_TYPE": "U",
        "NORAD_CAT_ID": 48859,
        "ELEMENT_SET_NO": 999,
        "REV_AT_EPOCH": 3245,
        "BSTAR": 0,
        "MEAN_MOTION_DOT": -8.6e-7,
        "MEAN_MOTION_DDOT": 0
    },
    {
        "OBJECT_NAME": "QZS-1R (QZSS/PRN 196)",
        "OBJECT_ID": "2021-096A",
        "EPOCH": "2025-11-15T05:30:51.750432",
        "MEAN_MOTION": 1.00266828,
        "ECCENTRICITY": 0.07514469,
        "INCLINATION": 37.0211,
        "RA_OF_ASC_NODE": 82.7671,
        "ARG_OF_PERICENTER": 270.8133,
        "MEAN_ANOMALY": 279.6285,
        "EPHEMERIS_TYPE": 0,
        "CLASSIFICATION_TYPE": "U",
        "NORAD_CAT_ID": 49336,
        "ELEMENT_SET_NO": 999,
        "REV_AT_EPOCH": 1486,
        "BSTAR": 0,
        "MEAN_MOTION_DOT": -2.39e-6,
        "MEAN_MOTION_DDOT": 0
    },
    {
        "OBJECT_NAME": "GSAT0223 (GALILEO 27)",
        "OBJECT_ID": "2021-116A",
        "EPOCH": "2025-11-17T05:47:10.799808",
        "MEAN_MOTION": 1.70476233,
        "ECCENTRICITY": 0.00045849,
        "INCLINATION": 57.2251,
        "RA_OF_ASC_NODE": 347.4022,
        "ARG_OF_PERICENTER": 240.2023,
        "MEAN_ANOMALY": 123.7519,
        "EPHEMERIS_TYPE": 0,
        "CLASSIFICATION_TYPE": "U",
        "NORAD_CAT_ID": 49809,
        "ELEMENT_SET_NO": 999,
        "REV_AT_EPOCH": 2457,
        "BSTAR": 0,
        "MEAN_MOTION_DOT": -8.3e-7,
        "MEAN_MOTION_DDOT": 0
    },
    {
        "OBJECT_NAME": "GSAT0224 (GALILEO 28)",
        "OBJECT_ID": "2021-116B",
        "EPOCH": "2025-11-17T02:04:28.370208",
        "MEAN_MOTION": 1.70476321,
        "ECCENTRICITY": 0.00038665,
        "INCLINATION": 57.2257,
        "RA_OF_ASC_NODE": 347.4051,
        "ARG_OF_PERICENTER": 243.7749,
        "MEAN_ANOMALY": 137.8498,
        "EPHEMERIS_TYPE": 0,
        "CLASSIFICATION_TYPE": "U",
        "NORAD_CAT_ID": 49810,
        "ELEMENT_SET_NO": 999,
        "REV_AT_EPOCH": 2459,
        "BSTAR": 0,
        "MEAN_MOTION_DOT": -8.3e-7,
        "MEAN_MOTION_DDOT": 0
    },
    {
        "OBJECT_NAME": "COSMOS 2557 (706K)",
        "OBJECT_ID": "2022-075A",
        "EPOCH": "2025-11-17T11:20:09.263616",
        "MEAN_MOTION": 2.13102052,
        "ECCENTRICITY": 0.00138017,
        "INCLINATION": 64.4235,
        "RA_OF_ASC_NODE": 321.9402,
        "ARG_OF_PERICENTER": 275.0008,
        "MEAN_ANOMALY": 84.8657,
        "EPHEMERIS_TYPE": 0,
        "CLASSIFICATION_TYPE": "U",
        "NORAD_CAT_ID": 52984,
        "ELEMENT_SET_NO": 999,
        "REV_AT_EPOCH": 2620,
        "BSTAR": 0,
        "MEAN_MOTION_DOT": -5.0e-7,
        "MEAN_MOTION_DDOT": 0
    },
    {
        "OBJECT_NAME": "COSMOS 2559 (707K)",
        "OBJECT_ID": "2022-130A",
        "EPOCH": "2025-11-17T06:59:40.758144",
        "MEAN_MOTION": 2.13101506,
        "ECCENTRICITY": 0.00124566,
        "INCLINATION": 64.3956,
        "RA_OF_ASC_NODE": 322.0371,
        "ARG_OF_PERICENTER": 192.7783,
        "MEAN_ANOMALY": 167.2149,
        "EPHEMERIS_TYPE": 0,
        "CLASSIFICATION_TYPE": "U",
        "NORAD_CAT_ID": 54031,
        "ELEMENT_SET_NO": 999,
        "REV_AT_EPOCH": 2417,
        "BSTAR": 0,
        "MEAN_MOTION_DOT": -4.9e-7,
        "MEAN_MOTION_DDOT": 0
    },
    {
        "OBJECT_NAME": "COSMOS 2564 (761)",
        "OBJECT_ID": "2022-161A",
        "EPOCH": "2025-11-18T01:46:58.122912",
        "MEAN_MOTION": 2.13102104,
        "ECCENTRICITY": 0.0008968,
        "INCLINATION": 64.7372,
        "RA_OF_ASC_NODE": 199.7182,
        "ARG_OF_PERICENTER": 208.9842,
        "MEAN_ANOMALY": 151.0565,
        "EPHEMERIS_TYPE": 0,
        "CLASSIFICATION_TYPE": "U",
        "NORAD_CAT_ID": 54377,
        "ELEMENT_SET_NO": 999,
        "REV_AT_EPOCH": 2313,
        "BSTAR": 0,
        "MEAN_MOTION_DOT": 6.0e-7,
        "MEAN_MOTION_DDOT": 0
    },
    {
        "OBJECT_NAME": "GPS BIII-6  (PRN 28)",
        "OBJECT_ID": "2023-009A",
        "EPOCH": "2025-11-17T19:20:06.470880",
        "MEAN_MOTION": 2.0055791,
        "ECCENTRICITY": 0.000377,
        "INCLINATION": 55.1033,
        "RA_OF_ASC_NODE": 156.8251,
        "ARG_OF_PERICENTER": 359.0155,
        "MEAN_ANOMALY": 181.0577,
        "EPHEMERIS_TYPE": 0,
        "CLASSIFICATION_TYPE": "U",
        "NORAD_CAT_ID": 55268,
        "ELEMENT_SET_NO": 999,
        "REV_AT_EPOCH": 2100,
        "BSTAR": 0,
        "MEAN_MOTION_DOT": 9.8e-7,
        "MEAN_MOTION_DDOT": 0
    },
    {
        "OBJECT_NAME": "BEIDOU-3 G4 (C62)",
        "OBJECT_ID": "2023-066A",
        "EPOCH": "2025-11-18T04:41:38.804928",
        "MEAN_MOTION": 1.00272736,
        "ECCENTRICITY": 0.0003823,
        "INCLINATION": 0.8705,
        "RA_OF_ASC_NODE": 300.088,
        "ARG_OF_PERICENTER": 226.7808,
        "MEAN_ANOMALY": 121.0996,
        "EPHEMERIS_TYPE": 0,
        "CLASSIFICATION_TYPE": "U",
        "NORAD_CAT_ID": 56564,
        "ELEMENT_SET_NO": 999,
        "REV_AT_EPOCH": 927,
        "BSTAR": 0,
        "MEAN_MOTION_DOT": -9.4e-7,
        "MEAN_MOTION_DDOT": 0
    }
]